{
  "type": "FeatureCollection",
  "features": [
    {
      "type": "Feature",
      "properties": {
        "norad_id": 31439,
        "name": "FENGYUN 1C DEB",
        "group": "fengyun-1c-debris",
        "lat": -69.78630887649429,
        "lon": 24.26012558657039,
        "alt_km": 997.4488405236425,
        "timestamp": "2025-12-19T04:59:48.588527+00:00",
        "meta_object_name": "FENGYUN 1C DEB",
        "meta_object_id": "1999-025BUB",
        "meta_epoch": "2025-12-16T06:53:28.781952",
        "meta_mean_motion": 13.95585021,
        "meta_eccentricity": 0.01379888,
        "meta_inclination": 98.9165,
        "meta_ra_of_asc_node": 356.1962,
        "meta_arg_of_pericenter": 152.0725,
        "meta_mean_anomaly": 227.5292,
        "meta_ephemeris_type": 0,
        "meta_classification_type": "U",
        "meta_norad_cat_id": 31439,
        "meta_element_set_no": 999,
        "meta_rev_at_epoch": 63282,
        "meta_bstar": 0.00051197114,
        "meta_mean_motion_dot": 7.12e-06,
        "meta_mean_motion_ddot": 0,
        "tle_line1": "1 31439U 99025BUB 25350.28713868  .00000712  00000+0  51197-3 0  9998",
        "tle_line2": "2 31439  98.9165 356.1962 0137988 152.0725 227.5292 13.95585021632829"
      },
      "geometry": {
        "type": "Point",
        "coordinates": [
          24.26012558657039,
          -69.78630887649429
        ]
      }
    },
    {
      "type": "Feature",
      "properties": {
        "norad_id": 31440,
        "name": "FENGYUN 1C DEB",
        "group": "fengyun-1c-debris",
        "lat": 72.50574441850438,
        "lon": -69.45007420682603,
        "alt_km": 782.9718626954973,
        "timestamp": "2025-12-19T04:59:48.588537+00:00",
        "meta_object_name": "FENGYUN 1C DEB",
        "meta_object_id": "1999-025BUC",
        "meta_epoch": "2025-12-17T12:23:45.417696",
        "meta_mean_motion": 14.36748322,
        "meta_eccentricity": 0.00366489,
        "meta_inclination": 98.7472,
        "meta_ra_of_asc_node": 79.5908,
        "meta_arg_of_pericenter": 327.6515,
        "meta_mean_anomaly": 32.2423,
        "meta_ephemeris_type": 0,
        "meta_classification_type": "U",
        "meta_norad_cat_id": 31440,
        "meta_element_set_no": 999,
        "meta_rev_at_epoch": 96394,
        "meta_bstar": 0.0014567311,
        "meta_mean_motion_dot": 4.286e-05,
        "meta_mean_motion_ddot": 0,
        "tle_line1": "1 31440U 99025BUC 25351.51649789  .00004286  00000+0  14567-2 0  9996",
        "tle_line2": "2 31440  98.7472  79.5908 0036648 327.6515  32.2423 14.36748322963942"
      },
      "geometry": {
        "type": "Point",
        "coordinates": [
          -69.45007420682603,
          72.50574441850438
        ]
      }
    },
    {
      "type": "Feature",
      "properties": {
        "norad_id": 31441,
        "name": "FENGYUN 1C DEB",
        "group": "fengyun-1c-debris",
        "lat": -77.45841500028104,
        "lon": -95.47459949789489,
        "alt_km": 592.9439807203116,
        "timestamp": "2025-12-19T04:59:48.588547+00:00",
        "meta_object_name": "FENGYUN 1C DEB",
        "meta_object_id": "1999-025BUD",
        "meta_epoch": "2025-12-15T10:13:03.179136",
        "meta_mean_motion": 14.75381813,
        "meta_eccentricity": 0.01026081,
        "meta_inclination": 99.3127,
        "meta_ra_of_asc_node": 212.6439,
        "meta_arg_of_pericenter": 327.1527,
        "meta_mean_anomaly": 32.3327,
        "meta_ephemeris_type": 0,
        "meta_classification_type": "U",
        "meta_norad_cat_id": 31441,
        "meta_element_set_no": 999,
        "meta_rev_at_epoch": 64130,
        "meta_bstar": 0.0032754651,
        "meta_mean_motion_dot": 0.00024224,
        "meta_mean_motion_ddot": 0,
        "tle_line1": "1 31441U 99025BUD 25349.42573124  .00024224  00000+0  32755-2 0  9996",
        "tle_line2": "2 31441  99.3127 212.6439 0102608 327.1527  32.3327 14.75381813641302"
      },
      "geometry": {
        "type": "Point",
        "coordinates": [
          -95.47459949789489,
          -77.45841500028104
        ]
      }
    },
    {
      "type": "Feature",
      "properties": {
        "norad_id": 31442,
        "name": "FENGYUN 1C DEB",
        "group": "fengyun-1c-debris",
        "lat": 29.521408121227775,
        "lon": 74.22346675949181,
        "alt_km": 731.4097254925555,
        "timestamp": "2025-12-19T04:59:48.588558+00:00",
        "meta_object_name": "FENGYUN 1C DEB",
        "meta_object_id": "1999-025BUE",
        "meta_epoch": "2025-12-13T23:15:38.407392",
        "meta_mean_motion": 14.33932663,
        "meta_eccentricity": 0.0079016,
        "meta_inclination": 98.5308,
        "meta_ra_of_asc_node": 73.932,
        "meta_arg_of_pericenter": 9.0794,
        "meta_mean_anomaly": 351.1798,
        "meta_ephemeris_type": 0,
        "meta_classification_type": "U",
        "meta_norad_cat_id": 31442,
        "meta_element_set_no": 999,
        "meta_rev_at_epoch": 97378,
        "meta_bstar": 0.00046189361,
        "meta_mean_motion_dot": 1.29e-05,
        "meta_mean_motion_ddot": 0,
        "tle_line1": "1 31442U 99025BUE 25347.96919453  .00001290  00000+0  46189-3 0  9998",
        "tle_line2": "2 31442  98.5308  73.9320 0079016   9.0794 351.1798 14.33932663973783"
      },
      "geometry": {
        "type": "Point",
        "coordinates": [
          74.22346675949181,
          29.521408121227775
        ]
      }
    },
    {
      "type": "Feature",
      "properties": {
        "norad_id": 31443,
        "name": "FENGYUN 1C DEB",
        "group": "fengyun-1c-debris",
        "lat": 76.56295353141171,
        "lon": 50.4897079405326,
        "alt_km": 586.3910817388478,
        "timestamp": "2025-12-19T04:59:48.588568+00:00",
        "meta_object_name": "FENGYUN 1C DEB",
        "meta_object_id": "1999-025BUF",
        "meta_epoch": "2025-12-18T12:03:46.040544",
        "meta_mean_motion": 14.48743868,
        "meta_eccentricity": 0.0191455,
        "meta_inclination": 99.2117,
        "meta_ra_of_asc_node": 92.5038,
        "meta_arg_of_pericenter": 81.0954,
        "meta_mean_anomaly": 281.1857,
        "meta_ephemeris_type": 0,
        "meta_classification_type": "U",
        "meta_norad_cat_id": 31443,
        "meta_element_set_no": 999,
        "meta_rev_at_epoch": 67025,
        "meta_bstar": 0.00095114918,
        "meta_mean_motion_dot": 4.471e-05,
        "meta_mean_motion_ddot": 0,
        "tle_line1": "1 31443U 99025BUF 25352.50261621  .00004471  00000+0  95115-3 0  9999",
        "tle_line2": "2 31443  99.2117  92.5038 0191455  81.0954 281.1857 14.48743868670250"
      },
      "geometry": {
        "type": "Point",
        "coordinates": [
          50.4897079405326,
          76.56295353141171
        ]
      }
    },
    {
      "type": "Feature",
      "properties": {
        "norad_id": 31444,
        "name": "FENGYUN 1C DEB",
        "group": "fengyun-1c-debris",
        "lat": -5.187842077061553,
        "lon": 115.0334038714963,
        "alt_km": 694.3870697876973,
        "timestamp": "2025-12-19T04:59:48.588578+00:00",
        "meta_object_name": "FENGYUN 1C DEB",
        "meta_object_id": "1999-025BUG",
        "meta_epoch": "2025-12-15T13:34:49.333728",
        "meta_mean_motion": 14.69963952,
        "meta_eccentricity": 0.00627859,
        "meta_inclination": 98.9275,
        "meta_ra_of_asc_node": 291.8692,
        "meta_arg_of_pericenter": 63.9063,
        "meta_mean_anomaly": 296.8584,
        "meta_ephemeris_type": 0,
        "meta_classification_type": "U",
        "meta_norad_cat_id": 31444,
        "meta_element_set_no": 999,
        "meta_rev_at_epoch": 97530,
        "meta_bstar": 0.00094331949,
        "meta_mean_motion_dot": 5.769e-05,
        "meta_mean_motion_ddot": 0,
        "tle_line1": "1 31444U 99025BUG 25349.56584877  .00005769  00000+0  94332-3 0  9994",
        "tle_line2": "2 31444  98.9275 291.8692 0062785  63.9063 296.8584 14.69963952975300"
      },
      "geometry": {
        "type": "Point",
        "coordinates": [
          115.0334038714963,
          -5.187842077061553
        ]
      }
    },
    {
      "type": "Feature",
      "properties": {
        "norad_id": 31447,
        "name": "FENGYUN 1C DEB",
        "group": "fengyun-1c-debris",
        "lat": -52.234041454196614,
        "lon": -157.1801814521573,
        "alt_km": 853.9807437683485,
        "timestamp": "2025-12-19T04:59:48.588588+00:00",
        "meta_object_name": "FENGYUN 1C DEB",
        "meta_object_id": "1999-025BUK",
        "meta_epoch": "2025-12-14T21:01:38.356896",
        "meta_mean_motion": 14.2403744,
        "meta_eccentricity": 0.02304397,
        "meta_inclination": 98.9919,
        "meta_ra_of_asc_node": 30.1793,
        "meta_arg_of_pericenter": 349.1545,
        "meta_mean_anomaly": 10.471,
        "meta_ephemeris_type": 0,
        "meta_classification_type": "U",
        "meta_norad_cat_id": 31447,
        "meta_element_set_no": 999,
        "meta_rev_at_epoch": 64882,
        "meta_bstar": 0.00018562598,
        "meta_mean_motion_dot": 5.08e-06,
        "meta_mean_motion_ddot": 0,
        "tle_line1": "1 31447U 99025BUK 25348.87613839  .00000508  00000+0  18563-3 0  9999",
        "tle_line2": "2 31447  98.9919  30.1793 0230439 349.1545  10.4710 14.24037440648821"
      },
      "geometry": {
        "type": "Point",
        "coordinates": [
          -157.1801814521573,
          -52.234041454196614
        ]
      }
    }
  ]
}